NANOSATC-BR1            
1 40024U 14033Q   26068.98267556  .00020336  00000+0  74295-3 0  9994
2 40024  98.0845  92.7804 0004644 147.6715 212.4808 15.28136801638811
STARLINK-33719          
1 63578U 25076K   26068.96695411  .00031875  00000+0  11621-2 0  9998
2 63578  43.0018 320.0605 0001285 258.3619 101.7089 15.27601310 51876
