[{"OBJECT_NAME":"NANOSATC-BR1","OBJECT_ID":"2014-033Q","EPOCH":"2026-03-09T23:35:03.168384","MEAN_MOTION":15.28136801,"ECCENTRICITY":0.00046435,"INCLINATION":98.0845,"RA_OF_ASC_NODE":92.7804,"ARG_OF_PERICENTER":147.6715,"MEAN_ANOMALY":212.4808,"EPHEMERIS_TYPE":0,"CLASSIFICATION_TYPE":"U","NORAD_CAT_ID":40024,"ELEMENT_SET_NO":999,"REV_AT_EPOCH":63881,"BSTAR":0.00074295057,"MEAN_MOTION_DOT":0.00020336,"MEAN_MOTION_DDOT":0},{"OBJECT_NAME":"STARLINK-33719","OBJECT_ID":"2025-076K","EPOCH":"2026-03-09T23:12:24.835104","MEAN_MOTION":15.2760131,"ECCENTRICITY":0.00012851,"INCLINATION":43.0018,"RA_OF_ASC_NODE":320.0605,"ARG_OF_PERICENTER":258.3619,"MEAN_ANOMALY":101.7089,"EPHEMERIS_TYPE":0,"CLASSIFICATION_TYPE":"U","NORAD_CAT_ID":63578,"ELEMENT_SET_NO":999,"REV_AT_EPOCH":5187,"BSTAR":0.0011620972,"MEAN_MOTION_DOT":0.00031875,"MEAN_MOTION_DDOT":0}]
